[{"OBJECT_NAME":"STARLINK-6278","OBJECT_ID":"2023-061AQ","EPOCH":"2026-03-09T08:02:06.834048","MEAN_MOTION":15.02712344,"ECCENTRICITY":0.00016319,"INCLINATION":43.0043,"RA_OF_ASC_NODE":186.1896,"ARG_OF_PERICENTER":305.6689,"MEAN_ANOMALY":54.4001,"EPHEMERIS_TYPE":0,"CLASSIFICATION_TYPE":"U","NORAD_CAT_ID":56412,"ELEMENT_SET_NO":999,"REV_AT_EPOCH":15685,"BSTAR":0.0016133454,"MEAN_MOTION_DOT":0.0002176,"MEAN_MOTION_DDOT":0},{"OBJECT_NAME":"FREGAT DEB","OBJECT_ID":"2011-037AT","EPOCH":"2026-02-27T07:33:41.728320","MEAN_MOTION":13.26314688,"ECCENTRICITY":0.10195687,"INCLINATION":51.565,"RA_OF_ASC_NODE":116.2128,"ARG_OF_PERICENTER":148.3059,"MEAN_ANOMALY":218.3568,"EPHEMERIS_TYPE":0,"CLASSIFICATION_TYPE":"U","NORAD_CAT_ID":45651,"ELEMENT_SET_NO":999,"REV_AT_EPOCH":25946,"BSTAR":0.0036558398,"MEAN_MOTION_DOT":0.00039113,"MEAN_MOTION_DDOT":0}]
